NORAD_CAT_ID,OBJECT_NAME,OBJECT_TYPE,EPOCH,MEAN_MOTION,ECCENTRICITY,INCLINATION,RA_OF_ASC_NODE,ARG_OF_PERICENTER,MEAN_ANOMALY,BSTAR,MEAN_MOTION_DOT,MEAN_MOTION_DDOT,TLE_LINE0,TLE_LINE1,TLE_LINE2,SEMIMAJOR_AXIS,PERIOD,APOGEE,PERIGEE,DECAYED
54761.0,STARLINK-5202,PAYLOAD,2024-06-07 22:17:45,15.08849935,0.0001547,53.2141,36.3456,99.0549,261.0618,0.00039863,6.064e-05,0.0,0 STARLINK-5202,1 54761U 22175D   24159.92900331  .00006064  00000-0  39863-3 0  9996,2 54761  53.2141  36.3456 0001547  99.0549 261.0618 15.08849935 83334,6917.85,95.437,540.785,538.645,0.0
54761.0,STARLINK-5202,PAYLOAD,2024-06-08 01:28:31,15.08853392,0.0001448,53.2184,35.7481,112.1116,248.003,0.00043703,6.677e-05,0.0,0 STARLINK-5202,1 54761U 22175D   24160.06148113  .00006677  00000-0  43703-3 0  9993,2 54761  53.2184  35.7481 0001448 112.1116 248.0030 15.08853392 81196,6917.839,95.437,540.706,538.703,0.0
54761.0,STARLINK-5202,PAYLOAD,2024-06-08 22:08:32,15.0884663,9.73e-05,53.2176,31.8863,86.7335,273.3768,0.0002795,4.164e-05,0.0,0 STARLINK-5202,1 54761U 22175D   24160.92260210  .00004164  00000-0  27950-3 0  9996,2 54761  53.2176  31.8863 0000973  86.7335 273.3768 15.08846630 83489,6917.86,95.437,540.398,539.052,0.0
54761.0,STARLINK-5202,PAYLOAD,2024-06-09 01:19:19,15.08849948,0.0001209,53.2179,31.2877,95.9535,264.1594,0.00035621,5.387e-05,0.0,0 STARLINK-5202,1 54761U 22175D   24161.05508231  .00005387  00000-0  35621-3 0  9991,2 54761  53.2179  31.2877 0001209  95.9535 264.1594 15.08849948 81341,6917.85,95.437,540.551,538.879,0.0
54761.0,STARLINK-5202,PAYLOAD,2024-06-09 21:59:20,15.08835733,9.73e-05,53.2182,27.4236,87.1857,272.9247,0.000297,4.442e-05,0.0,0 STARLINK-5202,1 54761U 22175D   24161.91620869  .00004442  00000-0  29700-3 0  9990,2 54761  53.2182  27.4236 0000973  87.1857 272.9247 15.08835733 81471,6917.893,95.438,540.432,539.085,0.0
54761.0,STARLINK-5202,PAYLOAD,2024-06-10 07:31:39,15.08838433,0.0001316,53.218,25.6403,86.9764,273.1379,0.00056503,8.716e-05,0.0,0 STARLINK-5202,1 54761U 22175D   24162.31365116  .00008716  00000-0  56503-3 0  9995,2 54761  53.2180  25.6403 0001316  86.9764 273.1379 15.08838433 83696,6917.885,95.438,540.661,538.84,0.0
54761.0,STARLINK-5202,PAYLOAD,2024-06-10 20:14:44,15.0884441,0.0001374,53.2182,23.2622,92.0921,268.0229,0.00044767,6.845e-05,0.0,0 STARLINK-5202,1 54761U 22175D   24162.84357109  .00006845  00000-0  44767-3 0  9996,2 54761  53.2182  23.2622 0001374  92.0921 268.0229 15.08844410 83770,6917.867,95.437,540.682,538.781,0.0
54761.0,STARLINK-5202,PAYLOAD,2024-06-11 07:22:26,15.08844767,0.000138,53.2177,21.182,89.0441,271.0709,0.00050521,7.763e-05,0.0,0 STARLINK-5202,1 54761U 22175D   24163.30725043  .00007763  00000-0  50521-3 0  9999,2 54761  53.2177  21.1820 0001380  89.0441 271.0709 15.08844767 83841,6917.866,95.437,540.685,538.776,0.0
54761.0,STARLINK-5202,PAYLOAD,2024-06-12 00:51:40,15.08861708,0.0001344,53.2179,17.9112,92.4287,267.6859,0.00050122,7.703e-05,0.0,0 STARLINK-5202,1 54761U 22175D   24164.03588130  .00007703  00000-0  50122-3 0  9995,2 54761  53.2179  17.9112 0001344  92.4287 267.6859 15.08861708 81799,6917.814,95.436,540.609,538.749,0.0
54761.0,STARLINK-5202,PAYLOAD,2024-06-12 19:56:18,15.08837072,0.000141,53.2178,14.3414,87.8512,272.2641,-4.6631e-05,-1.03e-05,0.0,0 STARLINK-5202,1 54761U 22175D   24164.83077015 -.00001030  00000-0 -46631-4 0  9998,2 54761  53.2178  14.3414 0001410  87.8512 272.2641 15.08837072 81919,6917.889,95.438,540.73,538.779,0.0
54761.0,STARLINK-5202,PAYLOAD,2024-06-12 21:31:41,15.08837809,0.0001537,53.218,14.0471,79.836,280.2806,3.8701e-05,3.28e-06,0.0,0 STARLINK-5202,1 54761U 22175D   24164.89701171  .00000328  00000-0  38701-4 0  9997,2 54761  53.2180  14.0471 0001537  79.8360 280.2806 15.08837809 84085,6917.887,95.438,540.815,538.689,0.0
54761.0,STARLINK-5202,PAYLOAD,2024-06-13 07:04:00,15.08840367,0.0001392,53.2173,12.2627,90.7979,269.3173,0.00025434,3.762e-05,0.0,0 STARLINK-5202,1 54761U 22175D   24165.29445106  .00003762  00000-0  25434-3 0  9998,2 54761  53.2173  12.2627 0001392  90.7979 269.3173 15.08840367 84142,6917.879,95.438,540.707,538.781,0.0
54761.0,STARLINK-5202,PAYLOAD,2024-06-13 21:22:28,15.08848549,0.0001355,53.217,9.5834,93.2851,266.8297,0.00053561,8.249e-05,0.0,0 STARLINK-5202,1 54761U 22175D   24165.89060968  .00008249  00000-0  53561-3 0  9990,2 54761  53.2170   9.5834 0001355  93.2851 266.8297 15.08848549 82073,6917.854,95.437,540.657,538.782,0.0
54761.0,STARLINK-5202,PAYLOAD,2024-06-14 13:16:20,15.08843074,0.0002015,53.218,6.6076,87.5284,272.5939,0.0002587,3.832e-05,0.0,0 STARLINK-5202,1 54761U 22175D   24166.55301281  .00003832  00000-0  25870-3 0  9995,2 54761  53.2180   6.6076 0002015  87.5284 272.5939 15.08843074 84336,6917.871,95.437,541.13,538.342,0.0
54761.0,STARLINK-5202,PAYLOAD,2024-06-14 19:37:52,15.08842305,0.00014,53.2163,5.419,92.3327,267.7826,0.00023157,3.4e-05,0.0,0 STARLINK-5202,1 54761U 22175D   24166.81797208  .00003400  00000-0  23157-3 0  9999,2 54761  53.2163   5.4190 0001400  92.3327 267.7826 15.08842305 84371,6917.873,95.437,540.707,538.77,0.0
54761.0,STARLINK-5202,PAYLOAD,2024-06-15 13:07:07,15.08845568,0.0001415,53.2178,2.1494,89.1241,270.9914,0.00026827,3.985e-05,0.0,0 STARLINK-5202,1 54761U 22175D   24167.54661251  .00003985  00000-0  26827-3 0  9993,2 54761  53.2178   2.1494 0001415  89.1241 270.9914 15.08845568 84483,6917.863,95.437,540.707,538.749,0.0
54761.0,STARLINK-5202,PAYLOAD,2024-06-15 22:39:25,15.08856269,0.0001419,53.2176,0.3648,90.6681,269.4474,0.00049086,7.536e-05,0.0,0 STARLINK-5202,1 54761U 22175D   24167.94404817  .00007536  00000-0  49086-3 0  9998,2 54761  53.2176   0.3648 0001419  90.6681 269.4474 15.08856269 84542,6917.831,95.437,540.677,538.714,0.0
54761.0,STARLINK-5202,PAYLOAD,2024-06-16 22:30:13,15.08839361,0.0001382,53.2174,355.9043,91.5184,268.5966,4.854e-05,4.85e-06,0.0,0 STARLINK-5202,1 54761U 22175D   24168.93765363  .00000485  00000-0  48540-4 0  9995,2 54761  53.2174 355.9043 0001382  91.5184 268.5966 15.08839361 84691,6917.882,95.438,540.703,538.791,0.0
54761.0,STARLINK-5202,PAYLOAD,2024-06-17 19:10:14,15.08841221,0.0001392,53.2178,352.038,90.4325,269.6827,3.9194e-05,3.36e-06,0.0,0 STARLINK-5202,1 54761U 22175D   24169.79877492  .00000336  00000-0  39194-4 0  9997,2 54761  53.2178 352.0380 0001392  90.4325 269.6827 15.08841221 84824,6917.877,95.437,540.705,538.779,0.0
54761.0,STARLINK-5202,PAYLOAD,2024-06-18 11:04:05,15.08835688,0.0001248,53.2187,349.0676,98.5726,261.5408,0.00012124,1.642e-05,0.0,0 STARLINK-5202,1 54761U 22175D   24170.46117764  .00001642  00000-0  12124-3 0  9996,2 54761  53.2187 349.0676 0001248  98.5726 261.5408 15.08835688 82769,6917.894,95.438,540.622,538.895,0.0
54761.0,STARLINK-5202,PAYLOAD,2024-06-18 19:01:01,15.08839889,0.0001271,53.2184,347.581,105.8479,254.2653,0.00010362,1.362e-05,0.0,0 STARLINK-5202,1 54761U 22175D   24170.79237637  .00001362  00000-0  10362-3 0  9995,2 54761  53.2184 347.5810 0001271 105.8479 254.2653 15.08839889 84975,6917.881,95.438,540.625,538.866,0.0
54761.0,STARLINK-5202,PAYLOAD,2024-06-19 12:30:16,15.0883457,0.0001326,53.2187,344.3111,104.5112,255.6027,7.1478e-05,8.5e-06,0.0,0 STARLINK-5202,1 54761U 22175D   24171.52102279  .00000850  00000-0  71478-4 0  9997,2 54761  53.2187 344.3111 0001326 104.5112 255.6027 15.08834570 82923,6917.897,95.438,540.679,538.845,0.0
54761.0,STARLINK-5202,PAYLOAD,2024-06-19 18:51:48,15.08840166,0.0001355,53.2199,343.1213,101.1185,258.996,0.00010255,1.345e-05,0.0,0 STARLINK-5202,1 54761U 22175D   24171.78597904  .00001345  00000-0  10255-3 0  9993,2 54761  53.2199 343.1213 0001355 101.1185 258.9960 15.08840166 85126,6917.88,95.438,540.682,538.808,0.0
54761.0,STARLINK-5202,PAYLOAD,2024-06-20 04:24:07,15.08841591,0.0001382,53.22,341.3338,82.8227,277.2923,8.6675e-05,1.092e-05,0.0,0 STARLINK-5202,1 54761U 22175D   24172.18341925  .00001092  00000-0  86675-4 0  9997,2 54761  53.2200 341.3338 0001382  82.8227 277.2923 15.08841591 85181,6917.876,95.437,540.697,538.784,0.0
54761.0,STARLINK-5202,PAYLOAD,2024-06-20 20:17:58,15.08846679,0.0001336,53.2192,338.359,78.5501,281.5641,4.4016e-05,4.13e-06,0.0,0 STARLINK-5202,1 54761U 22175D   24172.84581751  .00000413  00000-0  44016-4 0  9992,2 54761  53.2192 338.3590 0001336  78.5501 281.5641 15.08846679 83122,6917.86,95.437,540.649,538.801,0.0
54761.0,STARLINK-5202,PAYLOAD,2024-06-21 10:36:27,15.08836919,0.0001269,53.2188,335.6851,89.4767,270.6371,0.00010815,1.434e-05,0.0,0 STARLINK-5202,1 54761U 22175D   24173.44198231  .00001434  00000-0  10815-3 0  9999,2 54761  53.2188 335.6851 0001269  89.4767 270.6371 15.08836919 83212,6917.89,95.438,540.633,538.877,0.0
54761.0,STARLINK-5202,PAYLOAD,2024-06-21 18:33:22,15.08845759,0.0001296,53.2187,334.1991,84.2854,275.8286,8.5615e-05,1.075e-05,0.0,0 STARLINK-5202,1 54761U 22175D   24173.77317788  .00001075  00000-0  85615-4 0  9997,2 54761  53.2187 334.1991 0001296  84.2854 275.8286 15.08845759 85429,6917.863,95.437,540.624,538.831,0.0
54761.0,STARLINK-5202,PAYLOAD,2024-06-22 16:48:46,15.08839513,0.0001332,53.2184,330.0368,79.2042,280.91,4.6544e-05,4.53e-06,0.0,0 STARLINK-5202,1 54761U 22175D   24174.70054338  .00000453  00000-0  46544-4 0  9997,2 54761  53.2184 330.0368 0001332  79.2042 280.9100 15.08839513 83402,6917.882,95.438,540.668,538.825,0.0
54761.0,STARLINK-5202,PAYLOAD,2024-06-23 13:28:47,15.08840802,0.000139,53.2184,326.1705,85.7817,274.3334,5.2402e-05,5.46e-06,0.0,0 STARLINK-5202,1 54761U 22175D   24175.56166229  .00000546  00000-0  52402-4 0  9998,2 54761  53.2184 326.1705 0001390  85.7817 274.3334 15.08840802 85691,6917.878,95.438,540.705,538.781,0.0
54761.0,STARLINK-5202,PAYLOAD,2024-06-23 19:50:19,15.08846041,0.0001298,53.2179,324.9788,97.2158,262.8982,7.3608e-05,8.84e-06,0.0,0 STARLINK-5202,1 54761U 22175D   24175.82661702  .00000884  00000-0  73608-4 0  9999,2 54761  53.2179 324.9788 0001298  97.2158 262.8982 15.08846041 83572,6917.862,95.437,540.625,538.829,0.0
